FENGYUN 1C DEB          
1 39114U 99025EWB 17344.93506952  .00000974  00000-0  50161-3 0  9997
2 39114  99.0184  47.6271 0079698 120.5873 240.3193 14.15920250149042
